IRIDIUM 26              
1 24903U 97043A   25364.52107851  .00000668  00000+0  21732-3 0  9997
2 24903  86.3945  28.0868 0002317  96.1749 263.9713 14.37343146484942
IRIDIUM 22              
1 24907U 97043E   25364.61434485  .00000559  00000+0  18538-3 0  9996
2 24907  86.3947  31.7563 0002345  91.3320 268.8146 14.36135324484966
DUMMY MASS 1            
1 24925U 97048A   25364.63636401  .00000662  00000+0  70479-4 0  9993
2 24925  86.3327  44.4224 0007420 151.2770 208.8865 14.87199537534327
DUMMY MASS 2            
1 24926U 97048B   25364.63133789  .00000645  00000+0  68988-4 0  9998
2 24926  86.3328  46.0691 0007708 163.7139 196.4335 14.86949901534096
IRIDIUM 29              
1 24944U 97051A   25364.63537591  .00000634  00000+0  20889-3 0  9996
2 24944  86.3937  61.4283 0002195  89.2300 270.9149 14.36678684481473
IRIDIUM 33              
1 24946U 97051C   25364.62671422  .00000516  00000+0  17413-3 0  9997
2 24946  86.3853  60.7121 0009051 144.5513 215.6287 14.35051034480914
IRIDIUM 28              
1 24948U 97051E   25364.62439884  .00000618  00000+0  19981-3 0  9998
2 24948  86.3943  58.8363 0002518 105.4643 254.6833 14.37578701482068
IRIDIUM 36              
1 24967U 97056C   25364.62673259  .00000713  00000+0  23021-3 0  9996
2 24967  86.3960  90.4641 0002399  97.6274 262.5197 14.37802157480444
